     2.10           G: GLONASS NAV DATA                     RINEX VERSION / TYPE
teqc  2015Jun23                         20211030 01:25:46UTCPGM / RUN BY / DATE
Linux 2.4.21-27.ELsmp|Opteron|gcc -static|Linux x86_64|=+   COMMENT
  2021    10     6   -1.396983861923D-09                    CORR TO SYSTEM TIME
                                                            END OF HEADER
 8 21 10  7  0 15  0.0-6.134808063507D-05-0.000000000000D+00 0.000000000000D+00
   -1.782375976562D+03-5.406494140625D-01-9.313225746155D-10 0.000000000000D+00
    2.171975195312D+04 1.742691040039D+00-2.793967723846D-09 6.000000000000D+00
   -1.323152880859D+04 2.920317649841D+00 9.313225746155D-10 0.000000000000D+00
 7 21 10  7  0 15  0.0-4.079472273588D-05 0.000000000000D+00 0.000000000000D+00
   -1.051696728516D+04 2.940587997437D-01-2.793967723846D-09 0.000000000000D+00
    2.310025341797D+04-2.943258285522D-01-2.793967723846D-09 5.000000000000D+00
    2.820500000000D+03 3.539974212646D+00-9.313225746155D-10 0.000000000000D+00
 6 21 10  7  0 15  0.0-8.163973689079D-06-1.818989403546D-12 0.000000000000D+00
   -1.358277050781D+04 9.184513092041D-01-2.793967723846D-09 0.000000000000D+00
    1.230424658203D+04-2.252478599548D+00-9.313225746155D-10-4.000000000000D+00
    1.773754931641D+04 2.261090278625D+00-2.793967723846D-09 0.000000000000D+00
10 21 10  7  0 15  0.0-7.571280002594D-05-0.000000000000D+00 0.000000000000D+00
   -3.151041992188D+03-1.869280815125D+00-1.862645149231D-09 0.000000000000D+00
    1.266910302734D+04-2.347061157227D+00-9.313225746155D-10-7.000000000000D+00
   -2.192848095703D+04-1.080843925476D+00 2.793967723846D-09 0.000000000000D+00
12 21 10  7  0 15  0.0 2.679573372006D-04 3.637978807092D-12 0.000000000000D+00
    1.802679248047D+04 8.088378906250D-01 4.656612873077D-09 0.000000000000D+00
    1.616406396484D+04 7.632818222046D-01-1.862645149231D-09-1.000000000000D+00
    8.089137695312D+03-3.338980674744D+00-0.000000000000D+00 0.000000000000D+00
21 21 10  7  0 15  0.0-2.448046579957D-04-2.728484105319D-12 2.400000000000D+02
   -1.405860546875D+04-2.498450279236D+00-2.793967723846D-09 0.000000000000D+00
    1.042135400391D+04 5.005731582642D-01-9.313225746155D-10 4.000000000000D+00
    1.854189501953D+04-2.179005622864D+00-2.793967723846D-09 0.000000000000D+00
 1 21 10  7  0 15  0.0 8.633639663458D-05 0.000000000000D+00 1.500000000000D+03
    7.704841796875D+03-1.008134841919D+00 9.313225746155D-10 0.000000000000D+00
    1.000730468750D+04 2.860497474670D+00-9.313225746155D-10 1.000000000000D+00
   -2.216664697266D+04 9.420747756958D-01 2.793967723846D-09 0.000000000000D+00
 1 21 10  7  0 45  0.0 8.633825927973D-05 0.000000000000D+00 1.800000000000D+03
    6.337288085938D+03-5.134553909302D-01 0.000000000000D+00 0.000000000000D+00
    1.500102294922D+04 2.638288497925D+00-1.862645149231D-09 1.000000000000D+00
   -1.963635986328D+04 1.851154327393D+00 2.793967723846D-09 0.000000000000D+00
 7 21 10  7  0 45  0.0-4.079379141331D-05 0.000000000000D+00 1.800000000000D+03
   -9.814104003906D+03 4.452266693115D-01-2.793967723846D-09 0.000000000000D+00
    2.179689453125D+04-1.153083801270D+00-1.862645149231D-09 5.000000000000D+00
    9.001776855469D+03 3.283705711365D+00-1.862645149231D-09 0.000000000000D+00
 8 21 10  7  0 45  0.0-6.134808063507D-05-0.000000000000D+00 1.800000000000D+03
   -2.333083984375D+03-9.879779815674D-02-1.862645149231D-09 0.000000000000D+00
    2.425870117188D+04 1.044914245605D+00-2.793967723846D-09 6.000000000000D+00
   -7.530837890625D+03 3.372511863708D+00 9.313225746155D-10 0.000000000000D+00
10 21 10  7  0 45  0.0-7.571373134851D-05-0.000000000000D+00 1.800000000000D+03
   -6.928503906250D+03-2.298101425171D+00-2.793967723846D-09 0.000000000000D+00
    8.582212402344D+03-2.152256011963D+00-0.000000000000D+00-7.000000000000D+00
   -2.300220703125D+04-1.042518615723D-01 2.793967723846D-09 0.000000000000D+00
12 21 10  7  0 45  0.0 2.679638564587D-04 3.637978807092D-12 1.800000000000D+03
    1.904791894531D+04 2.888536453247D-01 3.725290298462D-09 0.000000000000D+00
    1.688454736328D+04 5.593109130859D-02-2.793967723846D-09-1.000000000000D+00
    1.844362792969D+03-3.554713249207D+00 0.000000000000D+00 0.000000000000D+00
21 21 10  7  0 45  0.0-2.448102459311D-04-2.728484105319D-12 1.800000000000D+03
   -1.794839355469D+04-1.792866706848D+00-4.656612873077D-09 0.000000000000D+00
    1.153421289062D+04 6.986541748047D-01-0.000000000000D+00 4.000000000000D+00
    1.395253515625D+04-2.887184143066D+00-2.793967723846D-09 0.000000000000D+00
 1 21 10  7  1 15  0.0 8.633919060230D-05 0.000000000000D+00 3.600000000000D+03
    5.817181640625D+03-8.366775512695D-02-9.313225746155D-10 0.000000000000D+00
    1.933498925781D+04 2.133969306946D+00-1.862645149231D-09 1.000000000000D+00
   -1.558840039062D+04 2.617422103882D+00 1.862645149231D-09 0.000000000000D+00
 7 21 10  7  1 15  0.0-4.079192876816D-05 0.000000000000D+00 3.600000000000D+03
   -9.062389648438D+03 3.508358001709D-01-2.793967723846D-09 0.000000000000D+00
    1.898684521484D+04-1.949281692505D+00-9.313225746155D-10 5.000000000000D+00
    1.448983251953D+04 2.774738311768D+00-2.793967723846D-09 0.000000000000D+00
 8 21 10  7  1 15  0.0-6.134901195765D-05-0.000000000000D+00 3.600000000000D+03
   -2.257919433594D+03 1.445541381836D-01-2.793967723846D-09 0.000000000000D+00
    2.538953417969D+04 1.947917938232D-01-1.862645149231D-09 6.000000000000D+00
   -1.247653808594D+03 3.563448905945D+00-0.000000000000D+00 0.000000000000D+00
12 21 10  7  1 15  0.0 2.679694443941D-04 3.637978807092D-12 3.600000000000D+03
    1.895546386719D+04-4.153242111206D-01 2.793967723846D-09 0.000000000000D+00
    1.646055468750D+04-4.938592910767D-01-2.793967723846D-09-1.000000000000D+00
   -4.542752441406D+03-3.496027946472D+00 9.313225746155D-10 0.000000000000D+00
21 21 10  7  1 15  0.0-2.448158338666D-04-2.728484105319D-12 3.600000000000D+03
   -2.043508007812D+04-9.581518173218D-01-6.519258022308D-09 0.000000000000D+00
    1.278799023438D+04 6.506919860840D-01 0.000000000000D+00 4.000000000000D+00
    8.282395996094D+03-3.372007369995D+00-1.862645149231D-09 0.000000000000D+00
22 21 10  7  1 15  0.0-1.374203711748D-04-1.818989403546D-12 4.350000000000D+03
   -7.327632324219D+03-2.569670677185D+00-1.862645149231D-09 0.000000000000D+00
    1.304870703125D+04 1.204818725586D+00-9.313225746155D-10-3.000000000000D+00
    2.066873486328D+04-1.662784576416D+00-2.793967723846D-09 0.000000000000D+00
 1 21 10  7  1 45  0.0 8.634012192488D-05 0.000000000000D+00 5.400000000000D+03
    5.940959472656D+03 1.885957717896D-01-1.862645149231D-09 0.000000000000D+00
    2.254922412109D+04 1.407331466675D+00-1.862645149231D-09 1.000000000000D+00
   -1.033523974609D+04 3.181548118591D+00 9.313225746155D-10 0.000000000000D+00
 8 21 10  7  1 45  0.0-6.134901195765D-05 0.000000000000D+00 5.400000000000D+03
   -1.957005859375D+03 1.488876342773D-01-3.725290298462D-09 0.000000000000D+00
    2.493403466797D+04-6.982879638672D-01-1.862645149231D-09 6.000000000000D+00
    5.131994628906D+03 3.479127883911D+00-9.313225746155D-10 0.000000000000D+00
 7 21 10  7  1 45  0.0-4.079099744558D-05 0.000000000000D+00 5.400000000000D+03
   -8.677257812500D+03 4.745769500732D-02-2.793967723846D-09 0.000000000000D+00
    1.488212255859D+04-2.575256347656D+00-0.000000000000D+00 5.000000000000D+00
    1.886242089844D+04 2.052293777466D+00-2.793967723846D-09 0.000000000000D+00
12 21 10  7  1 45  0.0 2.679750323296D-04 2.728484105319D-12 5.400000000000D+03
    1.749790283203D+04-1.210278511047D+00 9.313225746155D-10 0.000000000000D+00
    1.524378613281D+04-8.164806365967D-01-2.793967723846D-09-1.000000000000D+00
   -1.057867822266D+04-3.166951179504D+00 1.862645149231D-09 0.000000000000D+00
21 21 10  7  1 45  0.0-2.448214218020D-04-2.728484105319D-12 5.400000000000D+03
   -2.139097998047D+04-1.121282577515D-01-6.519258022308D-09 0.000000000000D+00
    1.371877978516D+04 3.411178588867D-01 1.862645149231D-09 4.000000000000D+00
    1.970438476562D+03-3.595635414124D+00-9.313225746155D-10 0.000000000000D+00
22 21 10  7  1 45  0.0-1.374240964651D-04-1.818989403546D-12 5.400000000000D+03
   -1.138907666016D+04-1.915267944336D+00-3.725290298462D-09 0.000000000000D+00
    1.535927587891D+04 1.320940017700D+00 0.000000000000D+00-3.000000000000D+00
    1.691666601562D+04-2.478980064392D+00-2.793967723846D-09 0.000000000000D+00
 1 21 10  7  2 15  0.0 8.634105324745D-05 0.000000000000D+00 7.200000000000D+03
    6.363093750000D+03 2.405242919922D-01-2.793967723846D-09 0.000000000000D+00
    2.432392578125D+04 5.522499084473D-01-1.862645149231D-09 1.000000000000D+00
   -4.282767089844D+03 3.499749183655D+00 0.000000000000D+00 0.000000000000D+00
 8 21 10  7  2 15  0.0-6.134808063507D-05 0.000000000000D+00 7.200000000000D+03
   -1.863933105469D+03-8.198451995850D-02-3.725290298462D-09 0.000000000000D+00
    2.292002148438D+04-1.517888069153D+00-9.313225746155D-10 6.000000000000D+00
    1.111597558594D+04 3.126775741577D+00-1.862645149231D-09 0.000000000000D+00
 7 21 10  7  2 15  0.0-4.079006612301D-05 0.000000000000D+00 7.200000000000D+03
   -8.972864746094D+03-3.906068801880D-01-1.862645149231D-09 0.000000000000D+00
    9.868534667969D+03-2.948169708252D+00 0.000000000000D+00 5.000000000000D+00
    2.178300048828D+04 1.171772956848D+00-3.725290298462D-09 0.000000000000D+00
12 21 10  7  2 15  0.0 2.679806202650D-04 2.728484105319D-12 7.200000000000D+03
    1.461126171875D+04-1.983879089355D+00-0.000000000000D+00 0.000000000000D+00
    1.367575439453D+04-8.830871582031D-01-2.793967723846D-09-1.000000000000D+00
   -1.579614648438D+04-2.592470169067D+00 1.862645149231D-09 0.000000000000D+00
21 21 10  7  2 15  0.0-2.448270097375D-04-2.728484105319D-12 7.200000000000D+03
   -2.090230712891D+04 6.286411285400D-01-6.519258022308D-09 0.000000000000D+00
    1.387699023438D+04-1.987295150757D-01 2.793967723846D-09 4.000000000000D+00
   -4.494243652344D+03-3.540585517883D+00-0.000000000000D+00 0.000000000000D+00
